SENTINEL-6              
1 46984U 20086A   24097.47986450 -.00000047  00000+0  61143-4 0  9992
2 46984  66.0448   0.2071 0007778 271.2885  88.7239 12.80929535157760
